H1 CPF 01  gfz 2021 11 29 01  8331 terrasarx 
H2 0702601  6201 31698    2021 11 29 00 59 42 2021 12 04 00 00 42   120 1 1  0 0 0
H9
10 0 59547  53262.000000  0   -4166488.736  -5097744.653   2020167.025
10 0 59547  53382.000000  0   -4438827.397  -5142134.861   1140283.862
10 0 59547  53502.000000  0   -4633519.271  -5092539.538    240321.488
10 0 59547  53622.000000  0   -4745561.811  -4951257.041   -663872.991
10 0 59547  53742.000000  0   -4771470.094  -4722278.642  -1556390.024
10 0 59547  53862.000000  0   -4709364.383  -4411186.564  -2421547.213
10 0 59547  53982.000000  0   -4559024.179  -4025019.906  -3244171.993
10 0 59547  54102.000000  0   -4321908.478  -3572113.743  -4009871.038
10 0 59547  54222.000000  0   -4001142.628  -3061916.148  -4705281.997
10 0 59547  54342.000000  0   -3601472.550  -2504787.067  -5318303.228
10 0 59547  54462.000000  0   -3129187.739  -1911784.564  -5838297.106
10 0 59547  54582.000000  0   -2592016.218  -1294443.525  -6256265.050
10 0 59547  54702.000000  0   -1998992.944   -664550.921  -6564992.684
10 0 59547  54822.000000  0   -1360304.237    -33922.513  -6759162.453
10 0 59547  54942.000000  0    -687113.451    585814.187  -6835433.976
10 0 59547  55062.000000  0       8630.456   1183428.671  -6792495.500
10 0 59547  55182.000000  0     714399.501   1748285.502  -6631083.680
10 0 59547  55302.000000  0    1417306.479   2270529.092  -6353974.735
10 0 59547  55422.000000  0    2104335.974   2741253.552  -5965941.748
10 0 59547  55542.000000  0    2762581.383   3152654.377  -5473680.780
10 0 59547  55662.000000  0    3379484.494   3498158.525  -4885705.244
10 0 59547  55782.000000  0    3943075.074   3772533.427  -4212210.990
10 0 59547  55902.000000  0    4442206.435   3971971.189  -3464909.862
10 0 59547  56022.000000  0    4866781.405   4094145.546  -2656833.546
10 0 59547  56142.000000  0    5207961.981   4138239.721  -1802110.498
10 0 59547  56262.000000  0    5458359.181   4104944.758   -915719.887
10 0 59547  56382.000000  0    5612197.026   3996427.025    -13226.153
10 0 59547  56502.000000  0    5665446.705   3816266.197    889499.365
10 0 59547  56622.000000  0    5615927.615   3569363.716   1776565.497
10 0 59547  56742.000000  0    5463370.651   3261823.599   2632349.841
10 0 59547  56862.000000  0    5209442.501   2900810.262   3441782.650
10 0 59547  56982.000000  0    4857730.265   2494385.561   4190619.684
10 0 59547  57102.000000  0    4413686.102   2051328.946   4865696.159
10 0 59547  57222.000000  0    3884538.318   1580948.546   5455158.359
10 0 59547  57342.000000  0    3279165.242   1092885.019   5948672.327
10 0 59547  57462.000000  0    2607937.253    596912.171   6337599.123
10 0 59547  57582.000000  0    1882533.684    102741.850   6615138.167
10 0 59547  57702.000000  0    1115737.094   -380164.621   6776441.154
10 0 59547  57822.000000  0     321205.447   -842777.176   6818693.088
10 0 59547  57942.000000  0    -486772.254  -1276665.294   6741157.310
10 0 59547  58062.000000  0   -1293532.487  -1674151.312   6545186.931
10 0 59547  58182.000000  0   -2084301.994  -2028446.200   6234201.246
10 0 59547  58302.000000  0   -2844465.793  -2333764.818   5813630.262
10 0 59547  58422.000000  0   -3559838.552  -2585422.200   5290828.833
10 0 59547  58542.000000  0   -4216934.752  -2779908.020   4674953.697
10 0 59547  58662.000000  0   -4803228.010  -2914936.197   3976807.181
10 0 59547  58782.000000  0   -5307396.060  -2989468.652   3208651.074
10 0 59547  58902.000000  0   -5719546.667  -3003713.602   2383993.679
10 0 59547  59022.000000  0   -6031420.266  -2959098.822   1517351.437
10 0 59547  59142.000000  0   -6236562.357  -2858219.288    623987.780
10 0 59547  59262.000000  0   -6330460.198  -2704758.761   -280362.982
10 0 59547  59382.000000  0   -6310642.306  -2503389.549  -1179781.372
10 0 59547  59502.000000  0   -6176735.471  -2259651.260  -2058453.285
10 0 59547  59622.000000  0   -5930478.028  -1979812.864  -2900955.560
10 0 59547  59742.000000  0   -5575691.902  -1670721.878  -3692531.462
10 0 59547  59862.000000  0   -5118213.501  -1339644.535  -4419350.935
10 0 59547  59982.000000  0   -4565786.538   -994101.070  -5068750.304
10 0 59547  60102.000000  0   -3927919.240   -641699.661  -5629447.906
10 0 59547  60222.000000  0   -3215709.869   -289973.417  -6091731.008
10 0 59547  60342.000000  0   -2441646.137     53776.129  -6447612.613
10 0 59547  60462.000000  0   -1619382.491    382625.526  -6690957.802
10 0 59547  60582.000000  0    -763498.889    690163.276  -6817578.535
10 0 59547  60702.000000  0     110753.654    970610.907  -6825297.311
10 0 59547  60822.000000  0     987717.585   1218927.948  -6713979.998
10 0 59547  60942.000000  0    1851602.514   1430899.904  -6485540.673
10 0 59547  61062.000000  0    2686764.297   1603209.425  -6143912.406
10 0 59547  61182.000000  0    3477984.187   1733487.814  -5694985.958
10 0 59547  61302.000000  0    4210742.873   1820346.412  -5146517.460
10 0 59547  61422.000000  0    4871488.166   1863388.433  -4508006.656
10 0 59547  61542.000000  0    5447891.107   1863200.243  -3790542.767
10 0 59547  61662.000000  0    5929083.365   1821321.441  -3006620.726
10 0 59547  61782.000000  0    6305872.506   1740194.599  -2169930.905
10 0 59547  61902.000000  0    6570929.954   1623095.827  -1295122.494
10 0 59547  62022.000000  0    6718944.429   1474046.402   -397545.424
10 0 59547  62142.000000  0    6746737.284   1297707.381    507024.386
10 0 59547  62262.000000  0    6653334.203   1099260.798   1402668.933
10 0 59547  62382.000000  0    6439996.199    884279.844   2273616.100
10 0 59547  62502.000000  0    6110203.360    658590.181   3104527.491
10 0 59547  62622.000000  0    5669593.970    428127.458   3880775.716
10 0 59547  62742.000000  0    5125859.694    198794.228   4588707.492
10 0 59547  62862.000000  0    4488602.450    -23678.892   5215884.931
10 0 59547  62982.000000  0    3769154.800   -233867.153   5751304.753
10 0 59547  63102.000000  0    2980367.814   -426775.105   6185586.882
10 0 59547  63222.000000  0    2136374.476   -597947.193   6511132.967
10 0 59547  63342.000000  0    1252332.003   -743564.704   6722253.809
10 0 59547  63462.000000  0     344145.906   -860527.027   6815264.024
10 0 59547  63582.000000  0    -571817.656   -946515.091   6788541.129
10 0 59547  63702.000000  0   -1479025.859  -1000036.799   6642551.142
10 0 59547  63822.000000  0   -2361076.097  -1020452.903   6379840.356
10 0 59547  63942.000000  0   -3201990.602  -1007983.024   6004993.919
10 0 59547  64062.000000  0   -3986507.018   -963692.106   5524562.822
10 0 59547  64182.000000  0   -4700360.269   -889458.448   4946956.252
10 0 59547  64302.000000  0   -5330549.082   -787922.694   4282299.857
10 0 59547  64422.000000  0   -5865581.061   -662418.683   3542261.830
10 0 59547  64542.000000  0   -6295690.769   -516887.636   2739850.297
10 0 59547  64662.000000  0   -6613028.341   -355777.491   1889185.766
10 0 59547  64782.000000  0   -6811813.363   -183929.344   1005248.934
10 0 59547  64902.000000  0   -6888447.188     -6454.690    103609.822
10 0 59547  65022.000000  0   -6841581.577    171394.262   -799855.070
10 0 59547  65142.000000  0   -6672141.401    344357.947  -1689251.721
10 0 59547  65262.000000  0   -6383301.318    507302.190  -2548955.354
10 0 59547  65382.000000  0   -5980420.307    655347.593  -3363891.543
10 0 59547  65502.000000  0   -5470930.244    783992.512  -4119805.959
10 0 59547  65622.000000  0   -4864185.261    889226.206  -4803512.880
10 0 59547  65742.000000  0   -4171276.942    967629.248  -5403120.935
10 0 59547  65862.000000  0   -3404820.370   1016459.311  -5908231.663
10 0 59547  65982.000000  0   -2578716.226   1033720.194  -6310109.385
10 0 59547  66102.000000  0   -1707894.789   1018213.573  -6601820.496
10 0 59547  66222.000000  0    -808045.201    969573.727  -6778342.171
10 0 59547  66342.000000  0     104663.673    888283.122  -6836638.148
10 0 59547  66462.000000  0    1013865.876    775669.731  -6775705.237
10 0 59547  66582.000000  0    1903285.120    633885.641  -6596591.363
10 0 59547  66702.000000  0    2757020.583    465867.323  -6302379.172
10 0 59547  66822.000000  0    3559826.411    275278.646  -5898138.496
10 0 59547  66942.000000  0    4297381.049     66436.116  -5390846.970
10 0 59547  67062.000000  0    4956542.910   -155781.619  -4789281.095
10 0 59547  67182.000000  0    5525590.529   -386038.708  -4103876.099
10 0 59547  67302.000000  0    5994439.315   -618660.206  -3346554.245
10 0 59547  67422.000000  0    6354831.006   -847760.886  -2530525.417
10 0 59547  67542.000000  0    6600491.985  -1067382.382  -1670061.250
10 0 59547  67662.000000  0    6727254.975  -1271634.639   -780245.660
10 0 59547  67782.000000  0    6733140.124  -1454838.718    123292.591
10 0 59547  67902.000000  0    6618393.915  -1611667.414   1024660.445
10 0 59547  68022.000000  0    6385482.476  -1737280.030   1907988.630
10 0 59547  68142.000000  0    6039040.684  -1827447.951   2757720.045
10 0 59547  68262.000000  0    5585776.647  -1878666.377   3558892.752
10 0 59547  68382.000000  0    5034334.740  -1888250.977   4297409.345
10 0 59547  68502.000000  0    4395121.959  -1854416.204   4960287.765
10 0 59547  68622.000000  0    3680103.277  -1776333.199   5535889.974
10 0 59547  68742.000000  0    2902568.522  -1654167.363   6014125.183
10 0 59547  68862.000000  0    2076877.131  -1489094.073   6386621.319
10 0 59547  68982.000000  0    1218188.029  -1283293.174   6646865.791
10 0 59547  69102.000000  0     342177.611  -1039921.526   6790313.724
10 0 59547  69222.000000  0    -535247.836   -763063.978   6814461.620
10 0 59547  69342.000000  0   -1398239.896   -457664.609   6718887.228
10 0 59547  69462.000000  0   -2231292.717   -129438.744   6505256.397
10 0 59547  69582.000000  0   -3019520.305    215233.269   6177296.396
10 0 59547  69702.000000  0   -3748923.240    569428.642   5740736.051
99
